{
  "type": "FeatureCollection",
  "features": [
    {
      "type": "Feature",
      "properties": {
        "norad_id": 38067,
        "name": "COSMOS 2251 DEB",
        "group": "cosmos-2251-debris",
        "lat": -24.144566335007454,
        "lon": -85.67810891743908,
        "alt_km": 699.523201012119,
        "timestamp": "2025-12-08T23:34:04.369881+00:00",
        "meta_object_name": "COSMOS 2251 DEB",
        "meta_object_id": "1993-036BRZ",
        "meta_epoch": "2025-11-29T04:46:36.876288",
        "meta_mean_motion": 14.61044936,
        "meta_eccentricity": 0.00691529,
        "meta_inclination": 74.017,
        "meta_ra_of_asc_node": 300.4181,
        "meta_arg_of_pericenter": 91.9303,
        "meta_mean_anomaly": 288.2542,
        "meta_ephemeris_type": 0,
        "meta_classification_type": "U",
        "meta_norad_cat_id": 38067,
        "meta_element_set_no": 999,
        "meta_rev_at_epoch": 62358,
        "meta_bstar": 0.00037425936,
        "meta_mean_motion_dot": 1.87e-05,
        "meta_mean_motion_ddot": 0,
        "tle_line1": "1 38067U 93036BRZ 25333.19903792  .00001870  00000+0  37426-3 0  9991",
        "tle_line2": "2 38067  74.0170 300.4181 0069152  91.9303 288.2542 14.61044936623583"
      },
      "geometry": {
        "type": "Point",
        "coordinates": [
          -85.67810891743908,
          -24.144566335007454
        ]
      }
    },
    {
      "type": "Feature",
      "properties": {
        "norad_id": 38068,
        "name": "COSMOS 2251 DEB",
        "group": "cosmos-2251-debris",
        "lat": 70.95963361441714,
        "lon": 11.272242393477915,
        "alt_km": 750.3655511280949,
        "timestamp": "2025-12-08T23:34:04.369891+00:00",
        "meta_object_name": "COSMOS 2251 DEB",
        "meta_object_id": "1993-036BSA",
        "meta_epoch": "2025-11-26T00:12:22.263264",
        "meta_mean_motion": 14.35960004,
        "meta_eccentricity": 0.00240903,
        "meta_inclination": 74.0219,
        "meta_ra_of_asc_node": 338.9788,
        "meta_arg_of_pericenter": 72.1007,
        "meta_mean_anomaly": 288.2769,
        "meta_ephemeris_type": 0,
        "meta_classification_type": "U",
        "meta_norad_cat_id": 38068,
        "meta_element_set_no": 999,
        "meta_rev_at_epoch": 66406,
        "meta_bstar": 0.00028750999,
        "meta_mean_motion_dot": 8.11e-06,
        "meta_mean_motion_ddot": 0,
        "tle_line1": "1 38068U 93036BSA 25330.00859101  .00000811  00000+0  28751-3 0  9998",
        "tle_line2": "2 38068  74.0219 338.9788 0024090  72.1007 288.2769 14.35960004664064"
      },
      "geometry": {
        "type": "Point",
        "coordinates": [
          11.272242393477915,
          70.95963361441714
        ]
      }
    },
    {
      "type": "Feature",
      "properties": {
        "norad_id": 38197,
        "name": "COSMOS 2251 DEB",
        "group": "cosmos-2251-debris",
        "lat": -72.23041090004911,
        "lon": -59.6032088601085,
        "alt_km": 582.1628565577857,
        "timestamp": "2025-12-08T23:34:04.369902+00:00",
        "meta_object_name": "COSMOS 2251 DEB",
        "meta_object_id": "1993-036BSM",
        "meta_epoch": "2025-12-06T08:23:38.720544",
        "meta_mean_motion": 14.73443974,
        "meta_eccentricity": 0.01278233,
        "meta_inclination": 73.9374,
        "meta_ra_of_asc_node": 9.5906,
        "meta_arg_of_pericenter": 248.6573,
        "meta_mean_anomaly": 110.0918,
        "meta_ephemeris_type": 0,
        "meta_classification_type": "U",
        "meta_norad_cat_id": 38197,
        "meta_element_set_no": 999,
        "meta_rev_at_epoch": 85661,
        "meta_bstar": 0.0077538955,
        "meta_mean_motion_dot": 0.00057752,
        "meta_mean_motion_ddot": 0,
        "tle_line1": "1 38197U 93036BSM 25340.34975371  .00057752  00000+0  77539-2 0  9990",
        "tle_line2": "2 38197  73.9374   9.5906 0127823 248.6573 110.0918 14.73443974856612"
      },
      "geometry": {
        "type": "Point",
        "coordinates": [
          -59.6032088601085,
          -72.23041090004911
        ]
      }
    },
    {
      "type": "Feature",
      "properties": {
        "norad_id": 38199,
        "name": "COSMOS 2251 DEB",
        "group": "cosmos-2251-debris",
        "lat": 68.52456223650786,
        "lon": -158.6430011592952,
        "alt_km": 1090.3174874474971,
        "timestamp": "2025-12-08T23:34:04.369912+00:00",
        "meta_object_name": "COSMOS 2251 DEB",
        "meta_object_id": "1993-036BSP",
        "meta_epoch": "2025-12-07T13:39:10.297152",
        "meta_mean_motion": 13.64784951,
        "meta_eccentricity": 0.03694158,
        "meta_inclination": 73.9558,
        "meta_ra_of_asc_node": 70.6839,
        "meta_arg_of_pericenter": 358.2142,
        "meta_mean_anomaly": 1.7624,
        "meta_ephemeris_type": 0,
        "meta_classification_type": "U",
        "meta_norad_cat_id": 38199,
        "meta_element_set_no": 999,
        "meta_rev_at_epoch": 60951,
        "meta_bstar": 0.00073631881,
        "meta_mean_motion_dot": 9.22e-06,
        "meta_mean_motion_ddot": 0,
        "tle_line1": "1 38199U 93036BSP 25341.56886918  .00000922  00000+0  73632-3 0  9993",
        "tle_line2": "2 38199  73.9558  70.6839 0369415 358.2142   1.7624 13.64784951609514"
      },
      "geometry": {
        "type": "Point",
        "coordinates": [
          -158.6430011592952,
          68.52456223650786
        ]
      }
    },
    {
      "type": "Feature",
      "properties": {
        "norad_id": 38208,
        "name": "COSMOS 2251 DEB",
        "group": "cosmos-2251-debris",
        "lat": 73.88723075384507,
        "lon": -176.79084439934496,
        "alt_km": 609.9773870388144,
        "timestamp": "2025-12-08T23:34:04.369922+00:00",
        "meta_object_name": "COSMOS 2251 DEB",
        "meta_object_id": "1993-036BSY",
        "meta_epoch": "2025-12-08T01:17:29.951232",
        "meta_mean_motion": 14.83590677,
        "meta_eccentricity": 0.00029301,
        "meta_inclination": 74.0062,
        "meta_ra_of_asc_node": 88.2125,
        "meta_arg_of_pericenter": 171.0279,
        "meta_mean_anomaly": 5.5691,
        "meta_ephemeris_type": 0,
        "meta_classification_type": "U",
        "meta_norad_cat_id": 38208,
        "meta_element_set_no": 999,
        "meta_rev_at_epoch": 71089,
        "meta_bstar": 0.0032427711,
        "meta_mean_motion_dot": 0.00026811,
        "meta_mean_motion_ddot": 0,
        "tle_line1": "1 38208U 93036BSY 25342.05381888  .00026811  00000+0  32428-2 0  9997",
        "tle_line2": "2 38208  74.0062  88.2125 0002930 171.0279   5.5691 14.83590677710890"
      },
      "geometry": {
        "type": "Point",
        "coordinates": [
          -176.79084439934496,
          73.88723075384507
        ]
      }
    },
    {
      "type": "Feature",
      "properties": {
        "norad_id": 38212,
        "name": "COSMOS 2251 DEB",
        "group": "cosmos-2251-debris",
        "lat": 52.39697434442418,
        "lon": -117.82597414235548,
        "alt_km": 573.7437827630183,
        "timestamp": "2025-12-08T23:34:04.369933+00:00",
        "meta_object_name": "COSMOS 2251 DEB",
        "meta_object_id": "1993-036BTC",
        "meta_epoch": "2025-12-08T13:15:26.464896",
        "meta_mean_motion": 14.77639869,
        "meta_eccentricity": 0.00927475,
        "meta_inclination": 74.0522,
        "meta_ra_of_asc_node": 84.8103,
        "meta_arg_of_pericenter": 153.0073,
        "meta_mean_anomaly": 207.5971,
        "meta_ephemeris_type": 0,
        "meta_classification_type": "U",
        "meta_norad_cat_id": 38212,
        "meta_element_set_no": 999,
        "meta_rev_at_epoch": 81248,
        "meta_bstar": 0.00080387737,
        "meta_mean_motion_dot": 6.149e-05,
        "meta_mean_motion_ddot": 0,
        "tle_line1": "1 38212U 93036BTC 25342.55238964  .00006149  00000+0  80388-3 0  9994",
        "tle_line2": "2 38212  74.0522  84.8103 0092747 153.0073 207.5971 14.77639869812484"
      },
      "geometry": {
        "type": "Point",
        "coordinates": [
          -117.82597414235548,
          52.39697434442418
        ]
      }
    },
    {
      "type": "Feature",
      "properties": {
        "norad_id": 38220,
        "name": "COSMOS 2251 DEB",
        "group": "cosmos-2251-debris",
        "lat": 64.5940208496417,
        "lon": 112.97864559080762,
        "alt_km": 580.6540354724739,
        "timestamp": "2025-12-08T23:34:04.369943+00:00",
        "meta_object_name": "COSMOS 2251 DEB",
        "meta_object_id": "1993-036BTL",
        "meta_epoch": "2025-12-07T23:07:29.587296",
        "meta_mean_motion": 14.92459164,
        "meta_eccentricity": 0.00038945,
        "meta_inclination": 74.0157,
        "meta_ra_of_asc_node": 77.9045,
        "meta_arg_of_pericenter": 65.821,
        "meta_mean_anomaly": 294.338,
        "meta_ephemeris_type": 0,
        "meta_classification_type": "U",
        "meta_norad_cat_id": 38220,
        "meta_element_set_no": 999,
        "meta_rev_at_epoch": 71299,
        "meta_bstar": 0.0040597904,
        "meta_mean_motion_dot": 0.00041864,
        "meta_mean_motion_ddot": 0,
        "tle_line1": "1 38220U 93036BTL 25341.96353689  .00041864  00000+0  40598-2 0  9990",
        "tle_line2": "2 38220  74.0157  77.9045 0003894  65.8210 294.3380 14.92459164712991"
      },
      "geometry": {
        "type": "Point",
        "coordinates": [
          112.97864559080762,
          64.5940208496417
        ]
      }
    }
  ]
}